IRIDIUM 921             
1 24873U 97034E   24356.01942872  .00148798  00000+0  11400-2 0  9994
2 24873  86.3686 193.8576 0001472  57.1393 303.0019 15.71670208504422
IRIDIUM 26              
1 24903U 97043A   24356.41495883  .00000704  00000+0  23154-3 0  9991
2 24903  86.3977 185.2216 0001887  83.7803 276.3609 14.36857979431682
IRIDIUM 22              
1 24907U 97043E   24355.78144809  .00000592  00000+0  19817-3 0  9999
2 24907  86.3982 188.8694 0001976  89.7700 270.3723 14.35701805431172
DUMMY MASS 1            
1 24925U 97048A   24355.66710818  .00000664  00000+0  71589-4 0  9995
2 24925  86.3359 217.7928 0008891  67.0341 293.1821 14.86684873478607
DUMMY MASS 2            
1 24926U 97048B   24356.13818265  .00000686  00000+0  74449-4 0  9996
2 24926  86.3357 219.1497 0009804  73.9093 286.3210 14.86440296478692
IRIDIUM 29              
1 24944U 97051A   24356.14362985  .00000639  00000+0  21261-3 0  9995
2 24944  86.3969 218.4983 0002165  89.2056 270.9389 14.36169376427934
IRIDIUM 33              
1 24946U 97051C   24356.14432166  .00000403  00000+0  13566-3 0  9994
2 24946  86.3885 217.7463 0006290 309.3969  50.6669 14.34691105427224
IRIDIUM 28              
1 24948U 97051E   24356.09341964  .00000626  00000+0  20422-3 0  9991
2 24948  86.3976 216.1374 0001699  75.5860 284.5526 14.37115180428331
